EUTELSAT 21B            
1 38992U 12062B   25256.16234740  .00000122  00000+0  00000+0 0  9992
2 38992   0.0696   2.4125 0002741 174.7435 255.2808  1.00273052 47048
EUTELSAT 70B            
1 39020U 12069A   25256.17205411 -.00000051  00000+0  00000+0 0  9998
2 39020   0.0658   3.2466 0003895 172.1654 309.4384  1.00272058 46733
EUTELSAT 117 WEST A     
1 39122U 13012A   25256.20624405 -.00000021  00000+0  00000+0 0  9999
2 39122   0.0412 310.4108 0002934 232.2498 127.2382  1.00272353 45659
EUTELSAT 7B             
1 39163U 13022A   25256.15940072  .00000040  00000+0  00000+0 0  9990
2 39163   0.0675 347.3595 0000758  30.5293  38.8876  1.00270429 45172
EXPRESS-AT1             
1 39612U 14010A   25256.16919410  .00000000  00000+0  00000+0 0  9996
2 39612   0.0195 154.8226 0000251  94.8998 219.5907  1.00271132 42041
EXPRESS-AT2             
1 39613U 14010B   25256.25711762 -.00000290  00000+0  00000+0 0  9999
2 39613   0.0118 229.7876 0000462 221.9811 133.1446  1.00270881 41724
EUTELSAT 3B             
1 39773U 14030A   25256.15862072  .00000012  00000+0  00000+0 0  9999
2 39773   0.0646   1.0406 0004326 173.2467 238.3088  1.00271973 41280
EUTELSAT 115 WEST B     
1 40425U 15010B   25255.56430550 -.00000031  00000+0  00000+0 0  9992
2 40425   0.0151 316.0251 0000088  56.2810  67.7711  1.00272206 38606
